ASTRO-F (AKARI)         
1 28939U 06005A   08198.02057471  .00000025  00000-0  15647-4 0  7525
2 28939  98.2366 198.4457 0008990 136.7923 223.3989 14.57476176127129
FORMOSAT 3A             
1 29047U 06011A   08198.52742371  .00000206  00000-0  10000-3 0  7201
2 29047  71.9819 344.4021 0051946   0.8857 359.2325 14.27066645119843
FORMOSAT 3B             
1 29048U 06011B   08197.71904348  .00000389  00000-0  17471-3 0  7544
2 29048  71.9704 261.9037 0046078 311.2682  48.4436 14.27050956122204
FORMOSAT 3C             
1 29049U 06011C   08198.08769279  .00000361  00000-0  16364-3 0  6952
2 29049  72.0218  48.3215 0035848  16.5234 343.7053 14.27066211118036
FORMOSAT 3D             
1 29050U 06011D   08198.66031305  .00001096  00000-0  26646-3 0  9740
2 29050  72.0103 256.4668 0054241 287.0958  72.4173 14.53927681122479
FORMOSAT 3E             
1 29051U 06011E   08197.76823748  .00000372  00000-0  16522-3 0  7567
2 29051  72.0096 318.5631 0070637 246.0940 113.2769 14.27061081120572
FORMOSAT 3F             
1 29052U 06011F   08198.58733910  .00000359  00000-0  16273-3 0  7748
2 29052  72.0371  17.8014 0041493 346.6085  13.3937 14.27073790118998
CLOUDSAT                
1 29107U 06016A   08197.92520692 -.00000011  00000-0  76049-5 0  7321
2 29107  98.2317 140.3477 0001359  85.7878 274.3524 14.57090516117901
CALIPSO                 
1 29108U 06016B   08197.92539542  .00000023  00000-0  15222-4 0  7233
2 29108  98.2317 140.4013 0001253  76.1281 284.0106 14.57092822117887
HINODE (SOLAR-B)        
1 29479U 06041A   08198.90228311  .00000073  00000-0  23439-4 0  5951
2 29479  98.0806 204.3303 0016042  14.0093 346.1551 14.62842323 96969
SJ-6C                   
1 29505U 06046A   08198.87522257  .00000357  00000-0  41971-4 0  9633
2 29505  97.6906 208.4484 0004692  98.1876 261.9865 14.90599313 94138
SJ-6D                   
1 29506U 06046B   08198.82488224  .00000045  00000-0  10295-4 0  9666
2 29506  97.6913 207.7865 0002769 125.0833 235.0625 14.89908258 94088
COROT                   
1 29678U 06063A   08198.45313799  .00000003  00000-0 -55278-5 0  5143
2 29678  89.9126  14.9100 0006722 110.3285 249.8635 13.98060913 79206
AIM                     
1 31304U 07015A   08198.23425158  .00000853  00000-0  89896-4 0  4197
2 31304  97.7983 296.3050 0010571 255.3943 104.6105 14.91912750 66701
GLAST                   
1 33053U 08029A   08198.06894266  .00000279  00000-0  00000+0 0   303
2 33053  25.5839  92.9560 0014318 245.1645 114.7401 15.04855415  5194
